[Satellite]
VERSION=1.1
NAME=CZ-6A DEB
NICKNAME=CZ-6A DEB
TLE1=1 54574U 22151MA  22342.29496875  .00002540  00000+0  77024-3 0  9992
TLE2=2 54574  98.6478 346.9641 0126046 218.2880 140.9308 14.38631977  3074
STATUS=0
